FENGYUN 1C DEB          
1 31440U 99025BUC 17344.54893254  .00000677  00000-0  34745-3 0  9992
2 31440  98.9149  25.9351 0049427 136.0257 224.4867 14.18106264551219
